     2              NAVIGATION DATA                         RINEX VERSION / TYPE
CCRINEXN V1.6.0 UX  CDDIS               30-JUL-14 17:31     PGM / RUN BY / DATE 
IGS BROADCAST EPHEMERIS FILE                                COMMENT             
    0.1118D-07  0.2235D-07 -0.5960D-07 -0.1192D-06          ION ALPHA           
    0.1065D+06  0.1475D+06 -0.6554D+05 -0.3277D+06          ION BETA            
    0.186264514923D-08 0.799360577730D-14   405504     1803 DELTA-UTC: A0,A1,T,W
    16                                                      LEAP SECONDS        
                                                            END OF HEADER       
 7 14  7 29 18  0  0.0 0.374200753868D-03 0.432009983342D-11 0.000000000000D+00
    0.200000000000D+02 0.227812500000D+02 0.400230956940D-08-0.419738783188D+00
    0.128149986267D-05 0.772372458596D-02 0.115111470222D-04 0.515362157059D+04
    0.237600000000D+06 0.121071934700D-06 0.337394505310D+00 0.540167093277D-07
    0.973320013131D+00 0.162781250000D+03-0.281817539865D+01-0.781282543554D-08
   -0.846463830045D-10 0.100000000000D+01 0.180300000000D+04 0.000000000000D+00
    0.200000000000D+01 0.000000000000D+00-0.107102096081D-07 0.200000000000D+02
    0.230418000000D+06 0.400000000000D+01 0.000000000000D+00 0.000000000000D+00
 8 14  7 29 18  0  0.0 0.149714760482D-04 0.227373675443D-12 0.000000000000D+00
    0.159000000000D+03 0.367812500000D+02 0.347764485787D-08-0.784624287048D+00
    0.197812914848D-05 0.140483232681D-01 0.113584101200D-04 0.515334908867D+04
    0.237600000000D+06 0.299885869026D-06 0.438176482484D+00 0.260770320892D-07
    0.996649005357D+00 0.175437500000D+03-0.276022836796D+01-0.754174271529D-08
    0.246438836595D-10 0.100000000000D+01 0.180300000000D+04 0.000000000000D+00
    0.200000000000D+01 0.000000000000D+00-0.419095158577D-08 0.159000000000D+03
    0.230418000000D+06 0.400000000000D+01 0.000000000000D+00 0.000000000000D+00
 9 14  7 29 18  0  0.0 0.149714760482D-04 0.227373675443D-12 0.000000000000D+00
    0.159000000000D+03 0.367812500000D+02 0.347764485787D-08-0.784624287048D+00
    0.197812914848D-05 0.140483232681D-01 0.113584101200D-04 0.515334908867D+04
    0.237600000000D+06 0.299885869026D-06 0.438176482484D+00 0.260770320892D-07
    0.996649005357D+00 0.175437500000D+03-0.276022836796D+01-0.754174271529D-08
    0.246438836595D-10 0.100000000000D+01 0.180300000000D+04 0.000000000000D+00
    0.200000000000D+01 0.000000000000D+00-0.419095158577D-08 0.159000000000D+03
    0.230400000000D+06 0.400000000000D+01 0.000000000000D+00 0.000000000000D+00
10 14  7 29 18  0  0.0-0.135703478009D-03-0.159161572810D-11 0.000000000000D+00
    0.500000000000D+02 0.469375000000D+02 0.496520682079D-08-0.289283112185D+01
    0.240653753281D-05 0.136868354166D-01 0.704266130924D-05 0.515360431290D+04
    0.237600000000D+06 0.819563865662D-07-0.176869093881D+01-0.178813934326D-06
    0.941517563860D+00 0.232000000000D+03 0.871007343809D+00-0.807962226298D-08
    0.439661170795D-09 0.100000000000D+01 0.180300000000D+04 0.000000000000D+00
    0.200000000000D+01 0.000000000000D+00-0.279396772385D-08 0.500000000000D+02
    0.230418000000D+06 0.400000000000D+01 0.000000000000D+00 0.000000000000D+00
11 14  7 29 18  0  0.0-0.509166624397D-03-0.306954461848D-11 0.000000000000D+00
    0.280000000000D+02-0.819687500000D+02 0.619561521510D-08-0.280498379380D+00
   -0.415742397308D-05 0.152644889895D-01 0.926293432713D-05 0.515371083450D+04
    0.237600000000D+06-0.115483999252D-06 0.313192346729D+01 0.122934579849D-06
    0.891428648839D+00 0.162375000000D+03 0.130821140563D+01-0.912895168605D-08
   -0.280368821344D-09 0.100000000000D+01 0.180300000000D+04 0.000000000000D+00
    0.200000000000D+01 0.000000000000D+00-0.121071934700D-07 0.280000000000D+02
    0.231648000000D+06 0.400000000000D+01 0.000000000000D+00 0.000000000000D+00
12 14  7 29 18  0  0.0 0.221362337470D-03 0.261479726760D-11 0.000000000000D+00
    0.850000000000D+02 0.719687500000D+02 0.418660296025D-08-0.891834160953D+00
    0.389106571674D-05 0.510133069474D-02 0.488199293613D-05 0.515357910728D+04
    0.237600000000D+06 0.670552253723D-07 0.140120304852D+01 0.931322574616D-08
    0.987758533273D+00 0.300781250000D+03 0.490443155875D+00-0.802140555231D-08
    0.433232331580D-09 0.000000000000D+00 0.180300000000D+04 0.000000000000D+00
    0.200000000000D+01 0.000000000000D+00-0.121071934700D-07 0.850000000000D+02
    0.230400000000D+06 0.400000000000D+01 0.000000000000D+00 0.000000000000D+00
13 14  7 29 18  0  0.0-0.255801714957D-04-0.386535248253D-11 0.000000000000D+00
    0.330000000000D+02-0.324062500000D+02 0.425410577201D-08 0.188693243218D+01
   -0.159256160259D-05 0.531485886313D-02 0.612810254097D-05 0.515355258751D+04
    0.237600000000D+06 0.447034835815D-07-0.626048919233D+00 0.134110450745D-06
    0.976907177499D+00 0.268406250000D+03 0.232369261540D+01-0.786568478020D-08
   -0.401802450971D-09 0.100000000000D+01 0.180300000000D+04 0.000000000000D+00
    0.200000000000D+01 0.000000000000D+00-0.111758708954D-07 0.330000000000D+02
    0.230418000000D+06 0.400000000000D+01 0.000000000000D+00 0.000000000000D+00
14 14  7 29 18  0  0.0 0.149828847498D-03-0.363797880709D-11 0.000000000000D+00
    0.580000000000D+02-0.364687500000D+02 0.434482383649D-08 0.225225398950D+01
   -0.187940895557D-05 0.780391402077D-02 0.613555312157D-05 0.515369095993D+04
    0.237600000000D+06 0.260770320892D-07-0.658352494018D+00-0.154599547386D-06
    0.969423067082D+00 0.263687500000D+03-0.199481632072D+01-0.793890211571D-08
   -0.333228166005D-09 0.000000000000D+00 0.180300000000D+04 0.000000000000D+00
    0.280000000000D+01 0.000000000000D+00-0.884756445885D-08 0.580000000000D+02
    0.230400000000D+06 0.400000000000D+01 0.000000000000D+00 0.000000000000D+00
15 14  7 29 18  0  0.0-0.193825457245D-03-0.227373675443D-11 0.000000000000D+00
    0.620000000000D+02-0.287187500000D+02 0.532736476327D-08 0.163548297280D+01
   -0.143982470036D-05 0.636898668017D-02 0.485777854919D-05 0.515372894669D+04
    0.237600000000D+06-0.223517417908D-07-0.772432105412D+00 0.596046447754D-07
    0.935913812270D+00 0.273781250000D+03 0.272039804601D+00-0.854714173705D-08
   -0.349300264044D-09 0.100000000000D+01 0.180300000000D+04 0.000000000000D+00
    0.200000000000D+01 0.000000000000D+00-0.102445483208D-07 0.620000000000D+02
    0.230418000000D+06 0.400000000000D+01 0.000000000000D+00 0.000000000000D+00
16 14  7 29 18  0  0.0-0.204664655030D-03 0.227373675443D-11 0.000000000000D+00
    0.970000000000D+02 0.790312500000D+02 0.414052961254D-08-0.300865226260D+01
    0.409409403801D-05 0.766714790370D-02 0.490993261337D-05 0.515363178062D+04
    0.237600000000D+06-0.838190317154D-07 0.141978878927D+01-0.484287738800D-07
    0.988343434254D+00 0.302812500000D+03 0.236050120984D+00-0.789104297933D-08
    0.418588864478D-09 0.000000000000D+00 0.180300000000D+04 0.000000000000D+00
    0.200000000000D+01 0.000000000000D+00-0.102445483208D-07 0.970000000000D+02
    0.231150000000D+06 0.400000000000D+01 0.000000000000D+00 0.000000000000D+00
17 14  7 29 18  0  0.0-0.112599227577D-03-0.284217094304D-11 0.000000000000D+00
    0.910000000000D+02-0.733437500000D+02 0.458769109575D-08 0.236471324357D+01
   -0.397115945816D-05 0.935906032100D-02 0.381655991077D-05 0.515362539291D+04
    0.237600000000D+06 0.186264514923D-08 0.245126095469D+01-0.149011611938D-06
    0.969406713121D+00 0.309906250000D+03-0.209744712499D+01-0.813391023858D-08
   -0.311084386485D-09 0.100000000000D+01 0.180300000000D+04 0.000000000000D+00
    0.280000000000D+01 0.000000000000D+00-0.102445483208D-07 0.910000000000D+02
    0.233058000000D+06 0.400000000000D+01 0.000000000000D+00 0.000000000000D+00
18 14  7 29 18  0  0.0 0.334652606398D-03 0.238742359215D-11 0.000000000000D+00
    0.560000000000D+02 0.560312500000D+02 0.529772067133D-08-0.237792764653D+01
    0.289082527161D-05 0.154802623438D-01 0.645965337753D-05 0.515371232224D+04
    0.237600000000D+06 0.128522515297D-06-0.179224707833D+01-0.968575477600D-07
    0.925297584004D+00 0.236437500000D+03-0.201897403849D+01-0.818819821418D-08
    0.445018536808D-09 0.000000000000D+00 0.180300000000D+04 0.000000000000D+00
    0.200000000000D+01 0.000000000000D+00-0.107102096081D-07 0.560000000000D+02
    0.230400000000D+06 0.400000000000D+01 0.000000000000D+00 0.000000000000D+00
19 14  7 29 18  0  0.0-0.470755156130D-03-0.204636307899D-11 0.000000000000D+00
    0.650000000000D+02-0.784062500000D+02 0.480984320642D-08 0.153277881050D+01
   -0.386871397495D-05 0.105595223140D-01 0.487267971039D-05 0.515363781166D+04
    0.237600000000D+06-0.968575477600D-07 0.250187839568D+01 0.240281224251D-06
    0.966554533425D+00 0.291375000000D+03 0.475700698409D+00-0.841177895579D-08
   -0.414660129402D-09 0.100000000000D+01 0.180300000000D+04 0.000000000000D+00
    0.200000000000D+01 0.000000000000D+00-0.149011611938D-07 0.650000000000D+02
    0.234060000000D+06 0.000000000000D+00 0.000000000000D+00 0.000000000000D+00
20 14  7 29 18  0  0.0 0.216071028262D-03 0.420641299570D-11 0.000000000000D+00
    0.790000000000D+02 0.550312500000D+02 0.537022369137D-08-0.186861369446D+01
    0.282004475594D-05 0.580242706928D-02 0.742450356483D-05 0.515375342941D+04
    0.237600000000D+06 0.201165676117D-06-0.184526579694D+01 0.353902578354D-07
    0.926370656359D+00 0.218750000000D+03 0.132670914893D+01-0.838999233400D-08
    0.344300055765D-09 0.100000000000D+01 0.180300000000D+04 0.000000000000D+00
    0.280000000000D+01 0.000000000000D+00-0.838190317154D-08 0.790000000000D+02
    0.230418000000D+06 0.400000000000D+01 0.000000000000D+00 0.000000000000D+00
